IRIDIUM 144             
1 43249U 18030A   24292.45379528  .00001262  00000+0  44362-3 0  9998
2 43249  86.4038 183.9987 0002311  80.3381 279.8076 14.34222593343170
IRIDIUM 149             
1 43250U 18030B   24292.46013377  .00001312  00000+0  46118-3 0  9995
2 43250  86.4036 183.9700 0002226  76.6705 283.4739 14.34224108343199
IRIDIUM 157             
1 43251U 18030C   24292.40940722  .00001401  00000+0  49305-3 0  9993
2 43251  86.4038 184.0306 0001990  76.9024 283.2394 14.34218159343161
IRIDIUM 140             
1 43252U 18030D   24292.42841938  .00001317  00000+0  46305-3 0  9998
2 43252  86.4036 184.0373 0002309  85.3397 274.8062 14.34220312343225
IRIDIUM 145             
1 43253U 18030E   24292.41572558  .00001125  00000+0  39467-3 0  9995
2 43253  86.4036 184.0156 0002596  81.0438 279.1051 14.34224399343159
IRIDIUM 146             
1 43254U 18030F   24292.46648322  .00001348  00000+0  47422-3 0  9991
2 43254  86.4037 184.0090 0002517  81.4676 278.6805 14.34221433343178
IRIDIUM 148             
1 43255U 18030G   24292.43475564  .00000434  00000+0  14797-3 0  9999
2 43255  86.4040 184.0553 0002297  77.2281 282.9171 14.34212232343202
IRIDIUM 142             
1 43256U 18030H   24292.40306408  .00001380  00000+0  48560-3 0  9993
2 43256  86.4036 183.9804 0002556  75.1364 285.0115 14.34218404343166
